{"spkid": "50640770", "covariance": {"labels": ["e", "q", "tp", "node", "peri", "i"], "data": [["1.861478191886755E-11", "-2.942271337326156E-11", "-1.249335359163463E-9", "1.162782191383111E-10", "-7.758224394651765E-10", "2.111876586878991E-10"], ["-2.942271337326156E-11", "4.650673699297577E-11", "1.91486939334606E-9", "-1.84188687552542E-10", "1.212899683403818E-9", "-3.338105543033628E-10"], ["-1.249335359163463E-9", "1.91486939334606E-9", "4.434728275289619E-6", "2.107123008320186E-8", "1.025159358003715E-6", "-1.382556081610674E-8"], ["1.162782191383111E-10", "-1.84188687552542E-10", "2.107123008320186E-8", "6.086548927189321E-9", "-3.459527343427152E-9", "3.924774802989547E-9"], ["-7.758224394651765E-10", "1.212899683403818E-9", "1.025159358003715E-6", "-3.459527343427152E-9", "2.549710538348132E-7", "-1.127887951434421E-8"], ["2.111876586878991E-10", "-3.338105543033628E-10", "-1.382556081610674E-8", "3.924774802989547E-9", "-1.127887951434421E-8", "3.916901605684194E-9"]], "elements": [{"label": "e", "value": ".4079760370001085", "title": "eccentricity", "units": null, "sigma": 4.31448512789968e-06, "name": "e"}, {"label": "q", "sigma": 6.81958481089397e-06, "name": "q", "units": "au", "value": ".9473181567890677", "title": "perihelion distance"}, {"label": "tp", "name": "tp", "sigma": 0.00210587945412116, "units": "TDB", "value": "2457588.348591884797", "title": "time of perihelion passage"}, {"label": "node", "units": "deg", "value": "232.8288381251008", "title": "longitude of the ascending node", "sigma": 7.80163375658542e-05, "name": "om"}, {"name": "w", "sigma": 0.000504946585130361, "units": "deg", "title": "argument of perihelion", "value": "209.4706507860851", "label": "peri"}, {"name": "i", "sigma": 6.25851548347066e-05, "title": "inclination", "value": "11.15218775006911", "units": "deg", "label": "i"}], "epoch": "2457832.5"}, "elements": [{"units": null, "title": "eccentricity", "value": ".4080808460978197", "sigma": "4.3167E-6", "name": "e", "label": "e"}, {"label": "a", "units": "au", "value": "1.600219831149122", "title": "semi-major axis", "sigma": "1.5809E-7", "name": "a"}, {"title": "perihelion distance", "value": ".9472007685112779", "units": "au", "name": "q", "sigma": "6.8183E-6", "label": "q"}, {"value": "11.14689992490505", "title": "inclination; angle with respect to x-y ecliptic plane", "units": "deg", "name": "i", "sigma": "6.2469E-5", "label": "i"}, {"label": "node", "title": "longitude of the ascending node", "value": "232.7712251768906", "units": "deg", "name": "om", "sigma": "7.7968E-5"}, {"label": "peri", "title": "argument of perihelion", "value": "209.5983385930835", "units": "deg", "name": "w", "sigma": ".00050409"}, {"units": "deg", "value": "318.7217766635172", "title": "mean anomaly", "sigma": ".0009431", "name": "ma", "label": "M"}, {"label": "tp", "sigma": ".0019348", "name": "tp", "units": "TDB", "value": "2461285.278630135864", "title": "time of perihelion passage"}, {"units": "d", "value": "739.3803410607661", "title": "sidereal orbital period", "sigma": ".00010957", "name": "per", "label": "period"}, {"label": "n", "sigma": "7.2154E-8", "name": "n", "title": "mean motion", "value": ".4868942004645662", "units": "deg/d"}, {"units": "au", "value": "2.253238893786965", "title": "aphelion distance", "name": "ad", "sigma": "2.2261E-7", "label": "Q"}], "epoch": "2461200.5"}